{"name": "Alaska First Cash", "street_adress": "229 W Fireweed Ln", "locality": "Anchorage", "region": "AK", "postal_code": "99503", "telephone": "(907) 274-5856"},
{"name": "Woody's Pawn Shop", "street_adress": "898 Russell St", "locality": "Orangeburg", "region": "SC", "postal_code": "29115", "telephone": "(803) 536-1711"},
{"name": "Use-Ful Things", "street_adress": "33695 Sterling Hwy", "locality": "Anchor Point", "region": "AK", "postal_code": "99556", "telephone": "(907) 235-0195"},
{"name": "Alaska Fast Cash", "street_adress": "2520 E Tudor", "locality": "Anchorage", "region": "AK", "postal_code": "99507", "telephone": "(907) 771-7970"},
{"name": "Alaska Super Pawn", "street_adress": "3701 Mountain View Dr", "locality": "Anchorage", "region": "AK", "postal_code": "99508", "telephone": "907-258-0229"},
{"name": "B & C Pawn", "street_adress": "4040 Marquis Way", "locality": "Anchorage", "region": "AK", "postal_code": "99502", "telephone": "(907) 338-3809"},
{"name": "Cash America - Gambell St", "street_adress": "1413 Gambell St", "locality": "Anchorage", "region": "AK", "postal_code": "99501", "telephone": "(907) 277-1229"},
{"name": "AAA Gun & Pawn Shop", "street_adress": "1859 S Woodland Blvd", "locality": "Deland", "region": "FL", "postal_code": "32720", "telephone": "(386) 736-0330"},
{"name": "Arctic Treasures Inc", "street_adress": "328 W Fourth Ave", "locality": "Anchorage", "region": "AK", "postal_code": "99501", "telephone": "(907) 277-9020"},
{"name": "Cash America - Mountain View Dr", "street_adress": "3920 Mountain View Dr", "locality": "Anchorage", "region": "AK", "postal_code": "99508", "telephone": "(907) 276-7296 (PAWN)"},
{"name": "RV's Jewelry and Pawn", "street_adress": "10099 Memorial Pkwy SW #5", "locality": "Huntsville", "region": "AL", "postal_code": "35803", "telephone": "(256) 203-2086"},
{"name": "Cash America Pawn", "street_adress": "1504 West Expressway 83, Suite F", "locality": "Weslaco", "region": "TX", "postal_code": "78596", "telephone": "(956) 969-8493"},
{"name": "Cash America Pawn", "street_adress": "804 Expressway 83 ", "locality": "Donna", "region": "TX", "postal_code": "78537", "telephone": "(956) 464-9292"},
{"name": "Cash America Pawn - Alameda Ave", "street_adress": "7010 Alameda Avenue", "locality": "El Paso", "region": "TX", "postal_code": "79915", "telephone": "(915) 772-6034"},
{"name": "Cash America - Spenard Rd", "street_adress": "2911 Spenard Rd", "locality": "Anchorage", "region": "AK", "postal_code": "99503", "telephone": "(907) 561-1630"},
{"name": "Cash America - Muldoon Rd", "street_adress": "150 Muldoon Rd", "locality": "Anchorage", "region": "AK", "postal_code": "99504", "telephone": "(907) 338-3297"},
{"name": "Dan's Discount Jewelry & Pawn", "street_adress": "1101 Kim Kent Drive", "locality": "Richmond", "region": "KY", "postal_code": "40475", "telephone": "(859) 353-5747"},
{"name": "Arrowhead Pawn Shop", "street_adress": "6433-A Tara Blvd", "locality": "Jonesboro", "region": "GA", "postal_code": "30236", "telephone": "(770) 603-1121"},
{"name": "Pontiac Exchange, Inc", "street_adress": "911 Custer Avenue", "locality": "Pontiac", "region": "IL", "postal_code": "61764", "telephone": "(815) 842-3321"},
{"name": "Easy Pawn - Muldoon Road", "street_adress": "361 Muldoon Road", "locality": "Anchorage", "region": "AK", "postal_code": "99504", "telephone": "(907) 272-7296 (PAWN)"},
{"name": "Equity North Investments", "street_adress": "PO Box 92068", "locality": "Anchorage", "region": "AK", "postal_code": "99509", "telephone": "(907) 272-7953"},
{"name": "Cash America Pawn - E Dimond Blvd", "street_adress": "901 E Dimond Blvd Ste F", "locality": "Anchorage", "region": "AK", "postal_code": "99515", "telephone": "(907) 646-0861"},
{"name": "Easy Pawn - N Bliss St", "street_adress": "704 N Bliss St", "locality": "Anchorage", "region": "AK", "postal_code": "99508", "telephone": "(907) 272-7296 (PAWN)"},
{"name": "Southside Trade & Loan Company", "street_adress": "9410 Old Seward Hwy", "locality": "Anchorage", "region": "AK", "postal_code": "99515", "telephone": "(907) 349-4486"},
{"name": "Cash America - W Fireweed Ln", "street_adress": "229 W Fireweed Ln", "locality": "Anchorage", "region": "AK", "postal_code": "99503-2072", "telephone": "(907) 274-5856"},
{"name": "Ron's Pawn Shop", "street_adress": "1515 E Tudor Rd", "locality": "Anchorage", "region": "AK", "postal_code": "99507", "telephone": "(907) 561-2027"},
{"name": "Price Busters Pawn Shop", "street_adress": "4231 Mountain View Drive", "locality": "Anchorage", "region": "AK", "postal_code": "99508", "telephone": "(907) 278-9200"},
{"name": "Pat's Pawn Shop", "street_adress": "361 Muldoon Rd", "locality": "Anchorage", "region": "AK", "postal_code": "99504", "telephone": "(907) 337-3022"},
{"name": "Mike's Gift & Pawn", "street_adress": "1149 Gambell St", "locality": "Anchorage", "region": "AK", "postal_code": "99501", "telephone": "(907) 274-6040"},
{"name": "Tudor Pawn Too", "street_adress": "3607 Arctic Blvd", "locality": "Anchorage", "region": "AK", "postal_code": "99503", "telephone": "(907) 562-7990"},
{"name": "Northshore Pawn & Thrift", "street_adress": "4524 S Big Lake Rd", "locality": "Big Lake", "region": "AK", "postal_code": "99623", "telephone": "(907) 892-8433"},
{"name": "Roy's Pawn Shop & Thrift Store", "street_adress": "2378 Alaska Hwy", "locality": "Delta Junction", "region": "AK", "postal_code": "99731", "telephone": "(907) 895-4273"},
{"name": "Spenard Pawn Shop", "street_adress": "3201 Spenard Road", "locality": "Anchorage", "region": "AK", "postal_code": "99503", "telephone": "(907) 561-3503"},
{"name": "AAA Mr Pawn", "street_adress": "2117 South Cushman Street", "locality": "Fairbanks", "region": "AK", "postal_code": "99701", "telephone": "(907) 452-7296 (PAWN)"},
{"name": "Ben's Super Store", "street_adress": "Airport Way & Gilliam Way", "locality": "Fairbanks", "region": "AK", "postal_code": null, "telephone": "(907) 456-8690"},
{"name": "Ita Pawn & Gift Shop", "street_adress": "942 3 Ave", "locality": "Bethel", "region": "AK", "postal_code": "99559", "telephone": "(907) 543-2678"},
{"name": "Alaska Fast Cash", "street_adress": "285 Romans Way", "locality": "Fairbanks", "region": "AK", "postal_code": "99701", "telephone": "(907) 455-7800"},
{"name": "Gene's Pawn", "street_adress": "16433 Artillery Rd", "locality": "Eagle River", "region": "AK", "postal_code": "99577", "telephone": "(907) 694-4226"},
{"name": "Eagle River Pawn", "street_adress": "12551 Old Glenn Highway", "locality": "Eagle River", "region": "AK", "postal_code": "99577", "telephone": "(907) 694-5626 (LOAN)"},
{"name": "JJ's Pawn Shop", "street_adress": "1690 Airport Way", "locality": "Fairbanks", "region": "AK", "postal_code": "99701", "telephone": "(907) 374-4424"},
{"name": "Ketchikan Trading & Pawn", "street_adress": "810 Water St", "locality": "Ketchikan", "region": "AK", "postal_code": "99901", "telephone": "(907) 247-7446"},
{"name": "Rozak Pawn & Tire Repair", "street_adress": "Mi 8 New Richardson Rd", "locality": "Fairbanks", "region": "AK", "postal_code": "99705", "telephone": "(907) 488-4156"},
{"name": "Frontier Pawn Shop", "street_adress": "712 Water Street", "locality": "Ketchikan", "region": "AK", "postal_code": "99901", "telephone": "(907) 225-8831"},
{"name": "Hawk Shop\r\n     & Pawn", "street_adress": "2117 S Cushman St", "locality": "Fairbanks", "region": "AK", "postal_code": "99701", "telephone": "(907) 452-4295"},
{"name": "Two Dice Pawnshop", "street_adress": "1402 Gillam Way", "locality": "Fairbanks", "region": "AK", "postal_code": "99701", "telephone": "(907) 456-4600"},
{"name": "Checkmate Pawn Shop", "street_adress": "9310 Glacier Hwy", "locality": "Juneau", "region": "AK", "postal_code": "99801", "telephone": "(907) 790-2366"},
{"name": "Homer Pawn Shoppe", "street_adress": "511 Main St St", "locality": "Kenai", "region": "AK", "postal_code": "99603", "telephone": "(907) 235-7554"},
{"name": "Hard Rock Pawn & Loan", "street_adress": "11888 Kenai Spur Hwy Suite 3", "locality": "Kenai", "region": "AK", "postal_code": "99611", "telephone": "(907) 283-7296 (PAWN)"},
{"name": "Kenai Pawn Shoppe", "street_adress": "511 Main Street", "locality": "Kenai", "region": "AK", "postal_code": "99611", "telephone": "907) 283-7887"},
{"name": "S E Loan & Pawn", "street_adress": "1900 Tongass Ave", "locality": "Ketchikan", "region": "AK", "postal_code": "99901", "telephone": "(907) 225-5626 (LOAN)"},
{"name": "Kotzebue Gun & Pawn", "street_adress": "940 B 3rd Avenue", "locality": "Kotzebue", "region": "AK", "postal_code": "99752", "telephone": "(907) 442-3300"},
{"name": "Kenai River Trading Post", "street_adress": "43700 Kalifornsky Beach Rd Ste 3", "locality": "Soldotna", "region": "AK", "postal_code": "99669", "telephone": "(907) 260-1995"},
{"name": "Sharpshooters Gun & Pawn Inc", "street_adress": "13150 East Scott Road", "locality": "Palmer", "region": "AK", "postal_code": "99645", "telephone": "(907) 746-6846"},
{"name": "Wild Traders Incorporated Pawn Locksmithing and Alarm Systems", "street_adress": "1314 Mill Bay Rd", "locality": "Kodiak", "region": "AK", "postal_code": "99615", "telephone": "(907) 486-3271"},
{"name": "Alaska Best Pawn", "street_adress": "1800 N Arabian Lane, Suite A", "locality": "Palmer", "region": "AK", "postal_code": "99645", "telephone": "(907) 745-7033"},
{"name": "Alaska Trading and Loans", "street_adress": "35440 Kenai Spur Hwy", "locality": "Soldotna", "region": "AK", "postal_code": "99669", "telephone": "(907) 262-6100"},
{"name": "Badger Trading Post & Pawn", "street_adress": "2513 Badger Rd Apt 1", "locality": "North Pole", "region": "AK", "postal_code": "99705", "telephone": "(907) 490-2897"},
{"name": "Davis Pawn & Loan", "street_adress": "121 Egan Bx2834", "locality": "Valdez", "region": "AK", "postal_code": "99686", "telephone": "(907) 835-5363"},
{"name": "Soldotna Pawn Shop", "street_adress": "44619 Sterling Highway Suite 1", "locality": "Soldotna", "region": "AK", "postal_code": "99669", "telephone": "(907) 262-9040"},
{"name": "A-1 Pawn Shop", "street_adress": "231 North Main Street", "locality": "Wasilla", "region": "AK", "postal_code": "99654", "telephone": "(907) 376-6757"},
{"name": "Papa Lu Wees Pawn", "street_adress": "Mi 46 Parks Hwy", "locality": "Wasilla", "region": "AK", "postal_code": "99629", "telephone": "(907) 376-7047"},
{"name": "Wasilla Pawn Shop", "street_adress": "320 Lucille Street", "locality": "Wasilla", "region": "AK", "postal_code": "99654", "telephone": "(907) 376-6869"},
{"name": "Big Boys Toys Storage Sales & Pawn", "street_adress": "Mi 51.5 W Parks Hwy", "locality": "Wasilla", "region": "AK", "postal_code": "99629", "telephone": "(907) 892-7003"},
{"name": "Allen's Pawn And Jewelry", "street_adress": "20 Rex Ln", "locality": "Adamsville", "region": "AL", "postal_code": "35005", "telephone": "(205) 674-4087"},
{"name": "Rainbow Pawn", "street_adress": "8150 South Rainbow Street", "locality": "Wasilla", "region": "AK", "postal_code": "99654", "telephone": "(907) 357-7296 (PAWN)"},
{"name": "Meadow Lakes Pawn Shop", "street_adress": "7202 W Parks Hwy", "locality": "Wasilla", "region": "AK", "postal_code": "99629", "telephone": "(907) 373-2096"},
{"name": "Sourdough Pawn & Gun", "street_adress": "1301 West Parks Highway", "locality": "Wasilla", "region": "AK", "postal_code": "99654", "telephone": "(907) 376-4590"},
{"name": "Alaska Frontier North Pawn & Loan", "street_adress": "475 W Parks Hwy", "locality": "Wasilla", "region": "AK", "postal_code": "99654", "telephone": "(907) 373-2274 (CASH)"},
{"name": "Alaska Fast Cash", "street_adress": "4710 E Fattic Ave", "locality": "Wasilla", "region": "AK", "postal_code": "99654", "telephone": "(907) 357-7800"},
{"name": "Daily Bread Advance & Pawn", "street_adress": "862 Terrace Dr", "locality": "Alexander City", "region": "AL", "postal_code": "35010", "telephone": "(256) 234-3240"},
{"name": "T P Pawn Shop", "street_adress": "230 1st St Sw", "locality": "Alabaster", "region": "AL", "postal_code": "35007-8527", "telephone": "205-664-3502"},
{"name": "Family Pawn", "street_adress": "873 1st St N", "locality": "Alabaster", "region": "AL", "postal_code": "35007", "telephone": "(205) 664-4032"},
{"name": "Joe's Pawn Shop", "street_adress": "11411 US Highway 431", "locality": "Albertville", "region": "AL", "postal_code": "35976", "telephone": "(256) 894-9994"},
{"name": "B & B Pawn Shop", "street_adress": "1678 Highway 22 W", "locality": "Alexander City", "region": "AL", "postal_code": "35010-4403", "telephone": "256-329-8202"},
{"name": "Bud's Pawn Shop", "street_adress": "9017 Us Highway 431", "locality": "Albertville", "region": "AL", "postal_code": "35950", "telephone": "(256) 878-6178"},
{"name": "Depot Gun & Pawn - Highway 280", "street_adress": "3968 Highway 280", "locality": "Alexander City", "region": "AL", "postal_code": "35010", "telephone": "(256) 329-3599"},
{"name": "Pawn Max", "street_adress": "8816 US Highway 431", "locality": "Albertville", "region": "AL", "postal_code": "35950", "telephone": "(256) 891-1897"},
{"name": "Cherokee Pawn & Music", "street_adress": "3968 Highway 280", "locality": "Alexander City", "region": "AL", "postal_code": "35010-3349", "telephone": "256-329-3599"},
{"name": "City Pawn Shop", "street_adress": "148 Calhoun St", "locality": "Alexander City", "region": "AL", "postal_code": "35010", "telephone": "(256) 329-8780"},
{"name": "Depot Gun And Pawn - Elkahatchee Rd", "street_adress": "4860 Elkahatchee Rd", "locality": "Alexander City", "region": "AL", "postal_code": "35010", "telephone": "(256) 234-2736"},
{"name": "144 Pawn Shop", "street_adress": "8310 Al Highway 144", "locality": "Alexandria", "region": "AL", "postal_code": "36250", "telephone": "(256) 892-3144"},
{"name": "Five Points Annex", "street_adress": "226 Jefferson St", "locality": "Alexander City", "region": "AL", "postal_code": "35010", "telephone": "(256) 392-3434"},
{"name": "Phones & Loans", "street_adress": "941 Cherokee Rd", "locality": "Alexander City", "region": "AL", "postal_code": "35010", "telephone": "(256) 409-2274 (CASH)"},
{"name": "Pat's Pawn & Gun Inc", "street_adress": "3514 Hillabee Rd", "locality": "Alexander City", "region": "AL", "postal_code": "35010", "telephone": "(256) 329-5252"},
{"name": "Aliceville Pawn & Gun - Mobile Rd SW", "street_adress": "725 Mobile Rd SW", "locality": "Aliceville", "region": "AL", "postal_code": "35442", "telephone": "(205) 373-7300"},
{"name": "Browns Kar Mart No 2 & Pawn Shop", "street_adress": "43030 State Highway 75", "locality": "Altoona", "region": "AL", "postal_code": "35953", "telephone": "(205) 466-7111"},
{"name": "Three Notch Pawn & Gun Shop", "street_adress": "1517 E Three Notch St", "locality": "Andalusia", "region": "AL", "postal_code": "36420", "telephone": "(334) 222-7566"},
{"name": "Aliceville Pawn & Gun - Broad St NW", "street_adress": "221 Broad St NW", "locality": "Aliceville", "region": "AL", "postal_code": "35442", "telephone": "205-373-8584"},
{"name": "Mr Pawn & Jewelry", "street_adress": "80 Spring Branch Rd", "locality": "Alexandria", "region": "AL", "postal_code": null, "telephone": "256-820-8148"},
{"name": "21 Express Pawn", "street_adress": "6700 McClellan Blvd", "locality": "Anniston", "region": "AL", "postal_code": "36206", "telephone": "(256) 403-5479"},
{"name": "431 Pawn Shop", "street_adress": "3804 US Hwy 431 N", "locality": "Anniston", "region": "AL", "postal_code": "36206-8552", "telephone": "256-238-0280"},
{"name": "Anniston Cash Advance & Pawn Shop", "street_adress": "222 S Quintard Ave", "locality": "Anniston", "region": "AL", "postal_code": "36201", "telephone": "(256) 231-2862"},
{"name": "AAA Pawn  & Jewelry", "street_adress": "5910 McClellan Blvd", "locality": "Anniston", "region": "AL", "postal_code": "36206", "telephone": "(256) 820-4697"},
{"name": "Galloway Gold Pawn", "street_adress": "5730 Mcclellan Blvd", "locality": "Anniston", "region": "AL", "postal_code": "36206", "telephone": "(256) 820-7700"},
{"name": "Express Pawn Shop", "street_adress": "1013 Us Highway 431", "locality": "Anniston", "region": "AL", "postal_code": "36206", "telephone": "(256) 237-3383"},
{"name": "Custom Jewelers & Loan", "street_adress": "807 S Quintard Ave", "locality": "Anniston", "region": "AL", "postal_code": "36201-6678", "telephone": "256-435-3305"},
{"name": "Alexander's Jewelry and Pawn", "street_adress": "6050 AL Highway 202", "locality": "Anniston", "region": "AL", "postal_code": "36201", "telephone": "(256) 237-4202"},
{"name": "C & H Pawn Shop", "street_adress": "519 S Quintard Ave", "locality": "Anniston", "region": "AL", "postal_code": "36201-6672", "telephone": "256-238-0312"},
{"name": "Big A Bama Pawn", "street_adress": "3100 Noble St", "locality": "Anniston", "region": "AL", "postal_code": "36201-2731", "telephone": "256-235-2008"},
{"name": "Gold Post Pawn & Jewelry", "street_adress": "4404 McClellan Blvd.", "locality": "Anniston", "region": "AL", "postal_code": "36201", "telephone": "(256) 236-5777"},
{"name": "Snow Street Gold & Pawn", "street_adress": "530 Noble St", "locality": "Anniston", "region": "AL", "postal_code": "36201-5657", "telephone": "256-238-1947"},
{"name": "Money Outlet Inc", "street_adress": "2363 Al Highway 202, Ste A", "locality": "Anniston", "region": "AL", "postal_code": "36201-5330", "telephone": "(256) 238-0777"},
{"name": "Quintard Jewelry & Pawn", "street_adress": "1920 Quintard Ave", "locality": "Anniston", "region": "AL", "postal_code": "36201", "telephone": "(256) 236-7696"},
{"name": "Noble Street Pawn", "street_adress": "3712 Pelham Rd", "locality": "Anniston", "region": "AL", "postal_code": "36201", "telephone": "(256) 236-3069"},
{"name": "Midway Pawn Shop", "street_adress": "1934 Front St", "locality": "Anniston", "region": "AL", "postal_code": "36201", "telephone": "(256) 831-2551"},
{"name": "Mike's Treasure Chest", "street_adress": "117 E 17th St", "locality": "Anniston", "region": "AL", "postal_code": "36201", "telephone": "(256) 236-3737"},
{"name": "Gold Post Pawn & Jewelry", "street_adress": "8149 McClellan Blvd", "locality": "Anniston", "region": "AL", "postal_code": "36206", "telephone": "(256) 782-0366"},
{"name": "Kenny's Pawn & Jewelry", "street_adress": "1531 Noble St", "locality": "Anniston", "region": "AL", "postal_code": "36201", "telephone": "(256) 236-5001"},
{"name": "J & W Antique & Pawn Shop", "street_adress": "2618 Noble St", "locality": "Anniston", "region": "AL", "postal_code": "36201-2942", "telephone": "256-236-6778"},
{"name": "Ardmore Pawn", "street_adress": "29414 9th Ave E", "locality": "Ardmore", "region": "AL", "postal_code": "35739", "telephone": "(256) 423-5445"},
{"name": "Arab Jewelry & Pawn Shop", "street_adress": "50 N Main St", "locality": "Arab", "region": "AL", "postal_code": "35016", "telephone": "(256) 586-2567"},
{"name": "Circle C Pawn Shop", "street_adress": "105 Cullman Rd", "locality": "Arab", "region": "AL", "postal_code": "35016", "telephone": "(256) 586-7334"},
{"name": "Miller's Pawn & Gun", "street_adress": "602 E Nashville Ave", "locality": "Atmore", "region": "AL", "postal_code": "36502", "telephone": "(251) 368-8534"},
{"name": "Bradford's Pawn & Jewelry", "street_adress": "314 South Marion St", "locality": "Athens", "region": "AL", "postal_code": "35611", "telephone": "(256) 233-0016"},
{"name": "Limestone Pawn Shop", "street_adress": "616 Us Highway 31 S", "locality": "Athens", "region": "AL", "postal_code": "35611", "telephone": "(256) 233-3625"},
{"name": "E-Z Cash-N-Pawn", "street_adress": "800 Us Highway 72 W # M", "locality": "Athens", "region": "AL", "postal_code": "35611", "telephone": "(256) 216-6066"},
{"name": "Title Exchange & Pawn-Anniston", "street_adress": "312 S Quintard Ave", "locality": "Anniston", "region": "AL", "postal_code": "36201-6072", "telephone": "(256) 237-1260"},
{"name": "Ashville Gun And Pawn", "street_adress": "37175 US Highway 231, Ste 5", "locality": "Ashville", "region": "AL", "postal_code": "35953-7316", "telephone": "(205) 594-4510"},
{"name": "Don's Pawn & Jewelry", "street_adress": "108 2nd Ave N", "locality": "Ashland", "region": "AL", "postal_code": "36251", "telephone": "(256) 354-2727"},
{"name": "Quality Gun & Pawn", "street_adress": "102 5th Ave Ne", "locality": "Attalla", "region": "AL", "postal_code": "35954", "telephone": "(256) 538-1308"},
{"name": "Gold 'N' Pawn & Jewelry", "street_adress": "100 5th Ave Ne", "locality": "Attalla", "region": "AL", "postal_code": "35954", "telephone": "(256) 538-8116"},
{"name": "Attalla Pawn & Jewelry", "street_adress": "709 Gilbert Ferry Rd SE", "locality": "Attalla", "region": "AL", "postal_code": "35954", "telephone": "(256) 570-0201"},
{"name": "Chuck's Gun Jewelry & Pawn", "street_adress": "1910 Opelika Rd", "locality": "Auburn", "region": "AL", "postal_code": "36830", "telephone": "(334) 821-3484"},
{"name": "J B's Sports & Pawn", "street_adress": "1903 S Us Highway 31", "locality": "Bay Minette", "region": "AL", "postal_code": "36507-2618", "telephone": "(251) 580-3366"},
{"name": "Kelly's Pawn and Gun", "street_adress": "450 Highway 31 South", "locality": "Bay Minette", "region": "AL", "postal_code": "36507", "telephone": "(251) 239-8002"},
{"name": "Money Mizer of Auburn", "street_adress": "1027-B Opelika Road", "locality": "Auburn", "region": "AL", "postal_code": "36830", "telephone": "(334) 502-2400"},
{"name": "State Line Pawn Shop", "street_adress": "300 E Church St Ste G", "locality": "Atmore", "region": "AL", "postal_code": "36502", "telephone": "(251) 368-5150"},
{"name": "Auburn Pawn & Jewelry", "street_adress": "920 Opelika Rd", "locality": "Auburn", "region": "AL", "postal_code": "36830", "telephone": "(334) 826-1898"},
{"name": "Almost Anything Pawn Shop", "street_adress": "236 N Gay St", "locality": "Auburn", "region": "AL", "postal_code": "36830", "telephone": "(334) 887-6774"},
{"name": "Smith Sporting Goods & Pawn Shop", "street_adress": "500 Dolive St", "locality": "Bay Minette", "region": "AL", "postal_code": "36507-3122", "telephone": "251-937-2825"},
{"name": "Cash America Pawn of Birmingham #02", "street_adress": "1030 9th Ave N", "locality": "Bessemer", "region": "AL", "postal_code": "35020-5310", "telephone": "(205) 248-6066"},
{"name": "Earl Pawn & Jewelry", "street_adress": "14060 S Wintzell Ave, Ste E", "locality": "Bayou La Batre", "region": "AL", "postal_code": "36509", "telephone": "(251) 824-2274 (CASH)"},
{"name": "Pee Wee's Pawn Shop", "street_adress": "1221 Lake Drive SE", "locality": "Bessemer", "region": "AL", "postal_code": "35022", "telephone": "(205) 428-7333"},
{"name": "Gold Star Pawn & Guns", "street_adress": "701 9th Ave", "locality": "Bessemer", "region": "AL", "postal_code": "35020", "telephone": "(205) 426-2274 (CASH)"},
{"name": "EZ Pawn", "street_adress": "614 9th Ave N", "locality": "Bessemer", "region": "AL", "postal_code": "35020", "telephone": "(205) 424-8060"},
{"name": "Coin Castle West", "street_adress": "700 Academy Drive # 106", "locality": "Bessemer", "region": "AL", "postal_code": "35022", "telephone": "(205) 426-3984"},
{"name": "Sharons Gold Mine Pawn Shop", "street_adress": "902 Allison Bonnett Memorial Dr", "locality": "Bessemer", "region": "AL", "postal_code": "35022", "telephone": "(205) 744-0351"},
{"name": "Hueytown Pawn & Coin", "street_adress": "725 Brooklane Dr", "locality": "Bessemer", "region": "AL", "postal_code": "35023-2842", "telephone": "(205) 491-6800"},
{"name": "The Corner Pawn Shoppe", "street_adress": "1098 9th Ave Sw", "locality": "Bessemer", "region": "AL", "postal_code": "35022", "telephone": "(205) 426-2900"},
{"name": "Anthony's Jewelry $ Pawn", "street_adress": "4673 Highway 280", "locality": "Birmingham", "region": "AL", "postal_code": "35242", "telephone": "(205) 588-2886"},
{"name": "Cash America Pawn of Birmingham #03", "street_adress": "2017 Bessemer Rd", "locality": "Birmingham", "region": "AL", "postal_code": "35208-3405", "telephone": "(205) 785-1888"},
{"name": "A AABCO Pawn Shop", "street_adress": "628 Springdale Rd", "locality": "Birmingham", "region": "AL", "postal_code": "35217", "telephone": "205-841-5300"},
{"name": "Cash America Pawn of Birmingham #01", "street_adress": "9416 Roebuck Pkwy East", "locality": "Birmingham", "region": "AL", "postal_code": "35215", "telephone": "(205) 838-1166"},
